[{"OBJECT_NAME":"STARLINK-36432","OBJECT_ID":"2026-003J","EPOCH":"2026-03-09T11:10:48.439488","MEAN_MOTION":15.27592232,"ECCENTRICITY":1.881e-5,"INCLINATION":42.9946,"RA_OF_ASC_NODE":227.9807,"ARG_OF_PERICENTER":317.7969,"MEAN_ANOMALY":42.2868,"EPHEMERIS_TYPE":0,"CLASSIFICATION_TYPE":"U","NORAD_CAT_ID":67342,"ELEMENT_SET_NO":999,"REV_AT_EPOCH":879,"BSTAR":0.00084775661,"MEAN_MOTION_DOT":0.00023149,"MEAN_MOTION_DDOT":0},{"OBJECT_NAME":"SIMSAT 2","OBJECT_ID":"2000-026B","EPOCH":"2026-03-09T20:25:01.673184","MEAN_MOTION":15.29036787,"ECCENTRICITY":0.00037035,"INCLINATION":86.3514,"RA_OF_ASC_NODE":176.4271,"ARG_OF_PERICENTER":287.9875,"MEAN_ANOMALY":72.0969,"EPHEMERIS_TYPE":0,"CLASSIFICATION_TYPE":"U","NORAD_CAT_ID":26366,"ELEMENT_SET_NO":999,"REV_AT_EPOCH":42803,"BSTAR":0.00013465771,"MEAN_MOTION_DOT":3.833e-5,"MEAN_MOTION_DDOT":0}]
